[
    {
        "Altitude(m)": 612513.8965168593,
        "Argument of Periapsis(deg)": 0.0,
        "Eccentricity": 0.0,
        "Inclination(deg)": 60.0,
        "Latitude(deg)": -28.13584971325992,
        "Longitude(deg)": 112.91310134390687,
        "Mean Anomaly(deg)": 212.7273,
        "RAAN(deg)": 15.0,
        "Satellite Name": "Test1 79",
        "Satellite Number": 79,
        "Semi-Major Axis(m)": 6980739.136638005,
        "Time(s)": 0
    },
    {
        "Altitude(m)": 612708.2641280972,
        "Argument of Periapsis(deg)": 0.00010418945913296404,
        "Eccentricity": 0.0,
        "Inclination(deg)": 60.0,
        "Latitude(deg)": -28.647589044313044,
        "Longitude(deg)": 113.27033104532745,
        "Mean Anomaly(deg)": 213.34740614546183,
        "RAAN(deg)": 14.999579950860259,
        "Satellite Name": "Test1 79",
        "Satellite Number": 79,
        "Semi-Major Axis(m)": 6980739.136638005,
        "Time(s)": 10
    }
]